NORAD_CAT_ID,OBJECT_NAME,OBJECT_TYPE,EPOCH,MEAN_MOTION,ECCENTRICITY,INCLINATION,RA_OF_ASC_NODE,ARG_OF_PERICENTER,MEAN_ANOMALY,BSTAR,MEAN_MOTION_DOT,MEAN_MOTION_DDOT,TLE_LINE0,TLE_LINE1,TLE_LINE2,SEMIMAJOR_AXIS,PERIOD,APOGEE,PERIGEE,DECAYED
55926.0,STARLINK-5921,PAYLOAD,2024-03-26 22:28:27,14.98326278,0.0003246,69.9977,281.68,268.5744,91.5043,-0.00014266,-1.795e-05,0.0,0 STARLINK-5921,1 55926U 23037N   24086.93643375 -.00001795  00000-0 -14266-3 0  9998,2 55926  69.9977 281.6800 0003246 268.5744  91.5043 14.98326278 57219,6950.204,96.107,574.325,569.813,0.0
55926.0,STARLINK-5921,PAYLOAD,2024-03-27 14:29:49,14.98316478,0.0003117,69.9983,279.9974,267.9668,92.1134,-0.00039121,-4.756e-05,0.0,0 STARLINK-5921,1 55926U 23037N   24087.60404667 -.00004756  00000-0 -39121-3 0  9999,2 55926  69.9983 279.9974 0003117 267.9668  92.1134 14.98316478 57313,6950.235,96.108,574.266,569.933,0.0
55926.0,STARLINK-5921,PAYLOAD,2024-03-27 20:54:23,14.98303586,0.0003116,69.9984,279.3246,269.8076,90.2726,-0.00052222,-6.314e-05,0.0,0 STARLINK-5921,1 55926U 23037N   24087.87110157 -.00006314  00000-0 -52222-3 0  9995,2 55926  69.9984 279.3246 0003116 269.8076  90.2726 14.98303586 57696,6950.275,96.109,574.305,569.974,0.0
55926.0,STARLINK-5921,PAYLOAD,2024-03-27 22:30:31,14.98303481,0.0003113,69.9984,279.1562,269.7695,90.3107,-0.00051394,-6.216e-05,0.0,0 STARLINK-5921,1 55926U 23037N   24087.93786238 -.00006216  00000-0 -51394-3 0  9991,2 55926  69.9984 279.1562 0003113 269.7695  90.3107 14.98303481 57360,6950.275,96.109,574.304,569.976,0.0
55926.0,STARLINK-5921,PAYLOAD,2024-03-28 12:55:42,14.98320088,0.0003525,69.9983,277.6432,270.8809,89.1946,-0.00014249,-1.792e-05,0.0,0 STARLINK-5921,1 55926U 23037N   24088.53868372 -.00001792  00000-0 -14249-3 0  9990,2 55926  69.9983 277.6432 0003525 270.8809  89.1946 14.98320088 57791,6950.224,96.108,574.538,569.639,0.0
55926.0,STARLINK-5921,PAYLOAD,2024-03-28 19:20:13,14.98320544,0.0003262,69.9979,276.9673,266.0543,94.0243,0.00020722,2.38e-05,0.0,0 STARLINK-5921,1 55926U 23037N   24088.80571608  .00002380  00000-0  20722-3 0  9998,2 55926  69.9979 276.9673 0003262 266.0543  94.0243 14.98320544 57832,6950.222,96.108,574.354,569.82,0.0
55926.0,STARLINK-5921,PAYLOAD,2024-03-28 22:32:30,14.98316123,0.0002274,69.9985,276.6292,275.7931,84.2969,0.00016439,1.868e-05,0.0,0 STARLINK-5921,1 55926U 23037N   24088.93924314  .00001868  00000-0  16439-3 0  9998,2 55926  69.9985 276.6292 0002274 275.7931  84.2969 14.98316123 57512,6950.236,96.108,573.681,570.52,0.0
55926.0,STARLINK-5921,PAYLOAD,2024-03-29 12:57:42,14.98325115,0.0003025,69.9972,275.115,263.8088,96.2726,0.00037245,4.353e-05,0.0,0 STARLINK-5921,1 55926U 23037N   24089.54007189  .00004353  00000-0  37245-3 0  9998,2 55926  69.9972 275.1150 0003025 263.8088  96.2726 14.98325115 57943,6950.208,96.107,574.175,569.971,0.0
55926.0,STARLINK-5921,PAYLOAD,2024-03-29 20:58:22,14.98339517,0.0002629,69.9985,274.273,264.1863,95.8996,0.00022639,2.61e-05,0.0,0 STARLINK-5921,1 55926U 23037N   24089.87386739  .00002610  00000-0  22639-3 0  9990,2 55926  69.9985 274.2730 0002629 264.1863  95.8996 14.98339517 57995,6950.163,96.106,573.856,570.201,0.0
55926.0,STARLINK-5921,PAYLOAD,2024-03-29 22:34:30,14.98325858,0.0002933,69.9986,274.1047,266.5768,93.5056,0.00049982,5.875e-05,0.0,0 STARLINK-5921,1 55926U 23037N   24089.94062994  .00005875  00000-0  49982-3 0  9998,2 55926  69.9986 274.1047 0002933 266.5768  93.5056 14.98325858 57663,6950.206,96.107,574.109,570.032,0.0
55926.0,STARLINK-5921,PAYLOAD,2024-03-30 04:59:03,14.98320269,0.0002852,69.9992,273.4318,265.1583,94.925,0.00042856,5.023e-05,0.0,0 STARLINK-5921,1 55926U 23037N   24090.20767631  .00005023  00000-0  42856-3 0  9997,2 55926  69.9992 273.4318 0002852 265.1583  94.9250 14.98320269 58048,6950.223,96.108,574.07,570.106,0.0
55926.0,STARLINK-5921,PAYLOAD,2024-03-30 14:35:51,14.98338538,0.0002861,69.9993,272.422,263.5621,96.5212,9.7956e-06,2.4e-07,0.0,0 STARLINK-5921,1 55926U 23037N   24090.60823405  .00000024  00000-0  97956-5 0  9992,2 55926  69.9993 272.4220 0002861 263.5621  96.5212 14.98338538 57767,6950.166,96.106,574.02,570.043,0.0
55926.0,STARLINK-5921,PAYLOAD,2024-03-30 21:00:23,14.98339442,0.0002844,69.9993,271.749,262.4654,97.6182,2.2786e-05,1.79e-06,0.0,0 STARLINK-5921,1 55926U 23037N   24090.87527175  .00000179  00000-0  22786-4 0  9995,2 55926  69.9993 271.7490 0002844 262.4654  97.6182 14.98339442 58149,6950.164,96.106,574.005,570.052,0.0
55926.0,STARLINK-5921,PAYLOAD,2024-03-30 22:36:31,14.98339498,0.0002843,69.9993,271.5807,262.5197,97.5639,2.2421e-05,1.75e-06,0.0,0 STARLINK-5921,1 55926U 23037N   24090.94203127  .00000175  00000-0  22421-4 0  9993,2 55926  69.9993 271.5807 0002843 262.5197  97.5639 14.98339498 57811,6950.164,96.106,574.004,570.053,0.0
55926.0,STARLINK-5921,PAYLOAD,2024-03-31 14:37:51,14.9834337,0.0002793,69.9995,269.8973,263.6904,96.3937,-6.0986e-05,-8.21e-06,0.0,0 STARLINK-5921,1 55926U 23037N   24091.60962550 -.00000821  00000-0 -60986-4 0  9997,2 55926  69.9995 269.8973 0002793 263.6904  96.3937 14.98343370 57912,6950.152,96.106,573.958,570.075,0.0
55926.0,STARLINK-5921,PAYLOAD,2024-03-31 21:02:23,14.98342799,0.0002791,69.9993,269.2239,263.8549,96.2292,-6.0504e-05,-8.15e-06,0.0,0 STARLINK-5921,1 55926U 23037N   24091.87666356 -.00000815  00000-0 -60504-4 0  9990,2 55926  69.9993 269.2239 0002791 263.8549  96.2292 14.98342799 57955,6950.153,96.106,573.958,570.079,0.0
55926.0,STARLINK-5921,PAYLOAD,2024-04-01 05:03:04,14.9833528,0.0002757,69.9993,268.3817,268.2366,91.8477,-8.4607e-05,-1.102e-05,0.0,0 STARLINK-5921,1 55926U 23037N   24092.21046726 -.00001102  00000-0 -84607-4 0  9992,2 55926  69.9993 268.3817 0002757 268.2366  91.8477 14.98335280 58342,6950.177,96.107,573.958,570.125,0.0
55926.0,STARLINK-5921,PAYLOAD,2024-04-01 13:03:44,14.98330477,0.0002837,69.9989,267.5401,268.3225,91.7609,-4.3219e-05,-6.09e-06,0.0,0 STARLINK-5921,1 55926U 23037N   24092.54426796 -.00000609  00000-0 -43219-4 0  9992,2 55926  69.9989 267.5401 0002837 268.3225  91.7609 14.98330477 58058,6950.191,96.107,574.028,570.085,0.0
55926.0,STARLINK-5921,PAYLOAD,2024-04-02 05:05:05,14.98330905,0.0002953,69.9989,265.8567,268.426,91.656,-3.5241e-05,-5.13e-06,0.0,0 STARLINK-5921,1 55926U 23037N   24093.21186716 -.00000513  00000-0 -35241-4 0  9992,2 55926  69.9989 265.8567 0002953 268.4260  91.6560 14.98330905 58490,6950.19,96.107,574.107,570.003,0.0
55926.0,STARLINK-5921,PAYLOAD,2024-04-02 13:05:45,14.98332814,0.0003012,69.9988,265.0147,268.5712,91.5102,1.8297e-05,1.25e-06,0.0,0 STARLINK-5921,1 55926U 23037N   24093.54566365  .00000125  00000-0  18297-4 0  9999,2 55926  69.9988 265.0147 0003012 268.5712  91.5102 14.98332814 58206,6950.184,96.107,574.143,569.956,0.0
55926.0,STARLINK-5921,PAYLOAD,2024-04-02 21:06:25,14.98335204,0.0003063,69.9988,264.1731,268.7555,91.3253,-4.5869e-06,-1.48e-06,0.0,0 STARLINK-5921,1 55926U 23037N   24093.87946191 -.00000148  00000-0 -45869-5 0  9997,2 55926  69.9988 264.1731 0003063 268.7555  91.3253 14.98335204 58254,6950.177,96.107,574.171,569.913,0.0
55926.0,STARLINK-5921,PAYLOAD,2024-04-03 05:07:05,14.98330926,0.0003065,69.9988,263.3311,268.9191,91.1617,6.0594e-06,-2.1e-07,0.0,0 STARLINK-5921,1 55926U 23037N   24094.21326366 -.00000021  00000-0  60594-5 0  9993,2 55926  69.9988 263.3311 0003065 268.9191  91.1617 14.98330926 58640,6950.19,96.107,574.185,569.925,0.0
55926.0,STARLINK-5921,PAYLOAD,2024-04-03 13:07:46,14.98326816,0.0003099,69.9988,262.4894,268.7594,91.321,5.0316e-05,5.07e-06,0.0,0 STARLINK-5921,1 55926U 23037N   24094.54706497  .00000507  00000-0  50316-4 0  9994,2 55926  69.9988 262.4894 0003099 268.7594  91.3210 14.98326816 58350,6950.203,96.107,574.222,569.914,0.0
55926.0,STARLINK-5921,PAYLOAD,2024-04-03 21:08:26,14.98330347,0.0003135,69.9987,261.6481,269.6131,90.4668,5.531e-05,5.67e-06,0.0,0 STARLINK-5921,1 55926U 23037N   24094.88086291  .00000567  00000-0  55310-4 0  9999,2 55926  69.9987 261.6481 0003135 269.6131  90.4668 14.98330347 58407,6950.192,96.107,574.236,569.878,0.0
55926.0,STARLINK-5921,PAYLOAD,2024-04-04 13:09:47,14.98331377,0.000311,69.9988,259.9648,269.8447,90.2356,1.2498e-05,5.6e-07,0.0,0 STARLINK-5921,1 55926U 23037N   24095.54846300  .00000056  00000-0  12498-4 0  9991,2 55926  69.9988 259.9648 0003110 269.8447  90.2356 14.98331377 58842,6950.189,96.107,574.215,569.892,0.0
55926.0,STARLINK-5921,PAYLOAD,2024-04-04 14:45:55,14.98331489,0.000311,69.9988,259.7965,269.844,90.2362,1.3408e-05,6.7e-07,0.0,0 STARLINK-5921,1 55926U 23037N   24095.61522282  .00000067  00000-0  13408-4 0  9993,2 55926  69.9988 259.7965 0003110 269.8440  90.2362 14.98331489 58510,6950.188,96.107,574.215,569.892,0.0
55926.0,STARLINK-5921,PAYLOAD,2024-04-04 21:10:27,14.98335127,0.000313,69.9989,259.1232,270.0962,89.9838,2.2269e-05,1.73e-06,0.0,0 STARLINK-5921,1 55926U 23037N   24095.88225970  .00000173  00000-0  22269-4 0  9999,2 55926  69.9989 259.1232 0003130 270.0962  89.9838 14.98335127 58557,6950.177,96.107,574.217,569.867,0.0
55926.0,STARLINK-5921,PAYLOAD,2024-04-05 13:11:47,14.98331518,0.0003073,69.9992,257.4399,271.1496,88.9311,3.0938e-05,2.76e-06,0.0,0 STARLINK-5921,1 55926U 23037N   24096.54986039  .00000276  00000-0  30938-4 0  9999,2 55926  69.9992 257.4399 0003073 271.1496  88.9311 14.98331518 58999,6950.188,96.107,574.189,569.917,0.0
55926.0,STARLINK-5921,PAYLOAD,2024-04-05 14:47:55,14.98331625,0.0003074,69.9992,257.2715,271.1491,88.9316,3.1421e-05,2.82e-06,0.0,0 STARLINK-5921,1 55926U 23037N   24096.61662021  .00000282  00000-0  31421-4 0  9994,2 55926  69.9992 257.2715 0003074 271.1491  88.9316 14.98331625 58663,6950.188,96.107,574.189,569.916,0.0
55926.0,STARLINK-5921,PAYLOAD,2024-04-05 19:36:19,14.98333347,0.0003026,69.9994,256.7669,270.2537,89.8276,5.4618e-05,5.59e-06,0.0,0 STARLINK-5921,1 55926U 23037N   24096.81689805  .00000559  00000-0  54618-4 0  9995,2 55926  69.9994 256.7669 0003026 270.2537  89.8276 14.98333347 58696,6950.183,96.107,574.151,569.944,0.0
